start=new Date('2022-12-13T00:00:00.000Z').valueOf();
sats=[{"REV_AT_EPOCH":"2371","ECCENTRICITY":"0.00016440","SEMIMAJOR_AXIS":"6917.916","RA_OF_ASC_NODE":"50.7763","MEAN_MOTION_DOT":"-0.00000482","MEAN_ANOMALY":"302.7497","PERIOD":"95.438","COUNTRY_CODE":"US","ELEMENT_SET_NO":"999","TLE_LINE2":"2 53182  53.2185  50.7763 0001644  57.3654 302.7497 15.08828246 23717","CENTER_NAME":"EARTH","PERIAPSIS":"538.644","ARG_OF_PERICENTER":"57.3654","INCLINATION":"53.2185","MEAN_MOTION":"15.08828246","TIME_SYSTEM":"UTC","MEAN_MOTION_DDOT":"0.0000000000000","BSTAR":"-0.00001220600000","REF_FRAME":"TEME","APOAPSIS":"540.919","OBJECT_TYPE":"PAYLOAD","EPOCH":"2022-12-12T11:23:38.879520","GP_ID":"220175575","CLASSIFICATION_TYPE":"U","DECAY_DATE":null,"MEAN_ELEMENT_THEORY":"SGP4","TLE_LINE1":"1 53182U 22083BC  22346.47475555 -.00000482  00000-0 -12206-4 0  9994","LAUNCH_DATE":"2022-07-17","OBJECT_NAME":"STARLINK-4278","FILE":"3694353","NORAD_CAT_ID":"53182","OBJECT_ID":"2022-083BC","RCS_SIZE":"LARGE","SITE":"AFETR","EPHEMERIS_TYPE":"0"},{"MEAN_MOTION":"15.10224994","PERIAPSIS":"534.326","INCLINATION":"53.2174","ARG_OF_PERICENTER":"46.7887","TLE_LINE2":"2 53183  53.2174  38.7933 0001720  46.7887 108.4926 15.10224994  1308","CENTER_NAME":"EARTH","ELEMENT_SET_NO":"999","BSTAR":"-0.07045100000000","REF_FRAME":"TEME","TIME_SYSTEM":"UTC","MEAN_MOTION_DDOT":"0.0000000000000","RA_OF_ASC_NODE":"38.7933","SEMIMAJOR_AXIS":"6913.650","REV_AT_EPOCH":"130","ECCENTRICITY":"0.00017200","COUNTRY_CODE":"US","MEAN_ANOMALY":"108.4926","PERIOD":"95.350","MEAN_MOTION_DOT":"-0.01077832","FILE":"3695286","NORAD_CAT_ID":"53183","LAUNCH_DATE":"2022-07-17","OBJECT_NAME":"STARLINK-4268","EPHEMERIS_TYPE":"0","RCS_SIZE":"LARGE","SITE":"AFETR","OBJECT_ID":"2022-083BD","GP_ID":"220211929","CLASSIFICATION_TYPE":"U","OBJECT_TYPE":"PAYLOAD","EPOCH":"2022-12-12T22:00:00.999936","APOAPSIS":"536.704","TLE_LINE1":"1 53183U 22083BD  22346.91667824 -.01077832  00000-0 -70451-1 0  9993","MEAN_ELEMENT_THEORY":"SGP4","DECAY_DATE":null},{"APOAPSIS":"443.322","OBJECT_TYPE":"PAYLOAD","EPOCH":"2022-12-12T22:00:00.999936","GP_ID":"220210860","CLASSIFICATION_TYPE":"U","DECAY_DATE":null,"MEAN_ELEMENT_THEORY":"SGP4","TLE_LINE1":"1 53184U 22083BE  22346.91667824 -.01139652  00000-0 -29496-1 0  9996","OBJECT_NAME":"STARLINK-4257","LAUNCH_DATE":"2022-07-17","FILE":"3695286","NORAD_CAT_ID":"53184","OBJECT_ID":"2022-083BE","RCS_SIZE":"LARGE","SITE":"AFETR","EPHEMERIS_TYPE":"0","REV_AT_EPOCH":"130","ECCENTRICITY":"0.00015240","SEMIMAJOR_AXIS":"6820.417","RA_OF_ASC_NODE":"34.8839","MEAN_MOTION_DOT":"-0.01139652","MEAN_ANOMALY":"49.5379","PERIOD":"93.428","COUNTRY_CODE":"US","ELEMENT_SET_NO":"999","TLE_LINE2":"2 53184  53.2175  34.8839 0001524  42.6979  49.5379 15.41297088  1306","CENTER_NAME":"EARTH","INCLINATION":"53.2175","PERIAPSIS":"441.243","ARG_OF_PERICENTER":"42.6979","MEAN_MOTION":"15.41297088","TIME_SYSTEM":"UTC","MEAN_MOTION_DDOT":"0.0000000000000","BSTAR":"-0.02949600000000","REF_FRAME":"TEME"},{"OBJECT_NAME":"STARLINK-4391","LAUNCH_DATE":"2022-07-22","FILE":"3694071","NORAD_CAT_ID":"53189","SITE":"AFWTR","RCS_SIZE":"LARGE","EPHEMERIS_TYPE":"0","OBJECT_ID":"2022-084A","CLASSIFICATION_TYPE":"U","GP_ID":"220171292","APOAPSIS":"564.470","EPOCH":"2022-12-12T04:02:16.550304","OBJECT_TYPE":"PAYLOAD","TLE_LINE1":"1 53189U 22084A   22346.16824711  .00013146  00000-0  10256-2 0  9990","DECAY_DATE":null,"MEAN_ELEMENT_THEORY":"SGP4","ARG_OF_PERICENTER":"53.1235","PERIAPSIS":"561.433","INCLINATION":"97.6550","MEAN_MOTION":"15.01279584","ELEMENT_SET_NO":"999","CENTER_NAME":"EARTH","TLE_LINE2":"2 53189  97.6550  44.9231 0002188  53.1235 307.0189 15.01279584 22421","REF_FRAME":"TEME","BSTAR":"0.00102560000000","MEAN_MOTION_DDOT":"0.0000000000000","TIME_SYSTEM":"UTC","RA_OF_ASC_NODE":"44.9231","ECCENTRICITY":"0.00021880","REV_AT_EPOCH":"2242","SEMIMAJOR_AXIS":"6941.086","COUNTRY_CODE":"US","MEAN_MOTION_DOT":"0.00013146","PERIOD":"95.918","MEAN_ANOMALY":"307.0189"},{"MEAN_MOTION_DOT":"0.00000225","MEAN_ANOMALY":"272.6222","PERIOD":"95.919","COUNTRY_CODE":"US","REV_AT_EPOCH":"2250","ECCENTRICITY":"0.00013020","SEMIMAJOR_AXIS":"6941.144","RA_OF_ASC_NODE":"45.4456","TIME_SYSTEM":"UTC","MEAN_MOTION_DDOT":"0.0000000000000","BSTAR":"0.00002214200000","REF_FRAME":"TEME","ELEMENT_SET_NO":"999","TLE_LINE2":"2 53190  97.6562  45.4456 0001302  87.5152 272.6222 15.01261029 22506","CENTER_NAME":"EARTH","ARG_OF_PERICENTER":"87.5152","PERIAPSIS":"562.105","INCLINATION":"97.6562","MEAN_MOTION":"15.01261029","DECAY_DATE":null,"MEAN_ELEMENT_THEORY":"SGP4","TLE_LINE1":"1 53190U 22084B   22346.73132034  .00000225  00000-0  22142-4 0  9998","APOAPSIS":"563.912","OBJECT_TYPE":"PAYLOAD","EPOCH":"2022-12-12T17:33:06.077376","GP_ID":"220211075","CLASSIFICATION_TYPE":"U","OBJECT_ID":"2022-084B","RCS_SIZE":"LARGE","SITE":"AFWTR","EPHEMERIS_TYPE":"0","LAUNCH_DATE":"2022-07-22","OBJECT_NAME":"STARLINK-4332","FILE":"3695286","NORAD_CAT_ID":"53190"},{"ELEMENT_SET_NO":"999","CENTER_NAME":"EARTH","TLE_LINE2":"2 53191  97.6550  45.3495 0002072  58.3910 301.7516 15.01273367 22192","PERIAPSIS":"561.532","INCLINATION":"97.6550","ARG_OF_PERICENTER":"58.3910","MEAN_MOTION":"15.01273367","MEAN_MOTION_DDOT":"0.0000000000000","TIME_SYSTEM":"UTC","REF_FRAME":"TEME","BSTAR":"0.00020522000000","ECCENTRICITY":"0.00020720","REV_AT_EPOCH":"2219","SEMIMAJOR_AXIS":"6941.106","RA_OF_ASC_NODE":"45.3495","MEAN_MOTION_DOT":"0.00002579","PERIOD":"95.919","MEAN_ANOMALY":"301.7516","COUNTRY_CODE":"US","OBJECT_NAME":"STARLINK-4369","LAUNCH_DATE":"2022-07-22","NORAD_CAT_ID":"53191","FILE":"3694349","OBJECT_ID":"2022-084C","SITE":"AFWTR","RCS_SIZE":"LARGE","EPHEMERIS_TYPE":"0","APOAPSIS":"564.409","EPOCH":"2022-12-12T15:06:06.405120","OBJECT_TYPE":"PAYLOAD","CLASSIFICATION_TYPE":"U","GP_ID":"220175411","DECAY_DATE":null,"MEAN_ELEMENT_THEORY":"SGP4","TLE_LINE1":"1 53191U 22084C   22346.62924080  .00002579  00000-0  20522-3 0  9990"},{"RA_OF_ASC_NODE":"44.8874","SEMIMAJOR_AXIS":"6941.090","ECCENTRICITY":"0.00021970","REV_AT_EPOCH":"2241","COUNTRY_CODE":"US","PERIOD":"95.918","MEAN_ANOMALY":"277.3913","MEAN_MOTION_DOT":"0.00004243","MEAN_MOTION":"15.01278591","INCLINATION":"97.6542","PERIAPSIS":"561.430","ARG_OF_PERICENTER":"82.7561","CENTER_NAME":"EARTH","TLE_LINE2":"2 53192  97.6542  44.8874 0002197  82.7561 277.3913 15.01278591 22418","ELEMENT_SET_NO":"999","REF_FRAME":"TEME","BSTAR":"0.00033460000000","MEAN_MOTION_DDOT":"0.0000000000000","TIME_SYSTEM":"UTC","CLASSIFICATION_TYPE":"U","GP_ID":"220170547","OBJECT_TYPE":"PAYLOAD","EPOCH":"2022-12-12T03:51:35.704224","APOAPSIS":"564.480","TLE_LINE1":"1 53192U 22084D   22346.16082991  .00004243  00000-0  33460-3 0  9991","MEAN_ELEMENT_THEORY":"SGP4","DECAY_DATE":null,"NORAD_CAT_ID":"53192","FILE":"3694071","OBJECT_NAME":"STARLINK-4375","LAUNCH_DATE":"2022-07-22","EPHEMERIS_TYPE":"0","SITE":"AFWTR","RCS_SIZE":"LARGE","OBJECT_ID":"2022-084D"},{"TLE_LINE1":"1 53193U 22084E   22346.76625206  .00002198  00000-0  17559-3 0  9998","DECAY_DATE":null,"MEAN_ELEMENT_THEORY":"SGP4","GP_ID":"220212141","CLASSIFICATION_TYPE":"U","APOAPSIS":"564.436","OBJECT_TYPE":"PAYLOAD","EPOCH":"2022-12-12T18:23:24.177984","RCS_SIZE":"LARGE","SITE":"AFWTR","EPHEMERIS_TYPE":"0","OBJECT_ID":"2022-084E","LAUNCH_DATE":"2022-07-22","OBJECT_NAME":"STARLINK-4351","FILE":"3695286","NORAD_CAT_ID":"53193","COUNTRY_CODE":"US","MEAN_MOTION_DOT":"0.00002198","MEAN_ANOMALY":"297.9351","PERIOD":"95.919","RA_OF_ASC_NODE":"45.4937","REV_AT_EPOCH":"2285","ECCENTRICITY":"0.00020960","SEMIMAJOR_AXIS":"6941.116","BSTAR":"0.00017559000000","REF_FRAME":"TEME","TIME_SYSTEM":"UTC","MEAN_MOTION_DDOT":"0.0000000000000","INCLINATION":"97.6536","PERIAPSIS":"561.526","ARG_OF_PERICENTER":"62.2085","MEAN_MOTION":"15.01270082","ELEMENT_SET_NO":"999","TLE_LINE2":"2 53193  97.6536  45.4937 0002096  62.2085 297.9351 15.01270082 22850","CENTER_NAME":"EARTH"},{"SITE":"AFWTR","RCS_SIZE":"LARGE","EPHEMERIS_TYPE":"0","OBJECT_ID":"2022-084F","LAUNCH_DATE":"2022-07-22","OBJECT_NAME":"STARLINK-4382","NORAD_CAT_ID":"53194","FILE":"3694071","TLE_LINE1":"1 53194U 22084F   22346.16452576  .00003795  00000-0  29982-3 0  9998","DECAY_DATE":null,"MEAN_ELEMENT_THEORY":"SGP4","CLASSIFICATION_TYPE":"U","GP_ID":"220171537","APOAPSIS":"564.301","OBJECT_TYPE":"PAYLOAD","EPOCH":"2022-12-12T03:56:55.025664","REF_FRAME":"TEME","BSTAR":"0.00029982000000","MEAN_MOTION_DDOT":"0.0000000000000","TIME_SYSTEM":"UTC","INCLINATION":"97.6548","PERIAPSIS":"561.679","ARG_OF_PERICENTER":"51.9574","MEAN_MOTION":"15.01267031","ELEMENT_SET_NO":"999","CENTER_NAME":"EARTH","TLE_LINE2":"2 53194  97.6548  44.8971 0001889  51.9574 308.1821 15.01267031 21746","COUNTRY_CODE":"US","MEAN_MOTION_DOT":"0.00003795","PERIOD":"95.919","MEAN_ANOMALY":"308.1821","RA_OF_ASC_NODE":"44.8971","ECCENTRICITY":"0.00018890","REV_AT_EPOCH":"2174","SEMIMAJOR_AXIS":"6941.125"},{"TLE_LINE2":"2 53195  97.6570  44.9419 0000934   7.3845 352.7393 15.00452232 22418","CENTER_NAME":"EARTH","ELEMENT_SET_NO":"999","MEAN_MOTION":"15.00452232","ARG_OF_PERICENTER":"7.3845","PERIAPSIS":"564.854","INCLINATION":"97.6570","TIME_SYSTEM":"UTC","MEAN_MOTION_DDOT":"0.0000000000000","BSTAR":"0.00061586000000","REF_FRAME":"TEME","SEMIMAJOR_AXIS":"6943.638","REV_AT_EPOCH":"2241","ECCENTRICITY":"0.00009340","RA_OF_ASC_NODE":"44.9419","MEAN_ANOMALY":"352.7393","PERIOD":"95.971","MEAN_MOTION_DOT":"0.00007695","COUNTRY_CODE":"US","FILE":"3694071","NORAD_CAT_ID":"53195","LAUNCH_DATE":"2022-07-22","OBJECT_NAME":"STARLINK-4404","OBJECT_ID":"2022-084G","EPHEMERIS_TYPE":"0","RCS_SIZE":"LARGE","SITE":"AFWTR","OBJECT_TYPE":"PAYLOAD","EPOCH":"2022-12-12T03:13:05.079648","APOAPSIS":"566.151","GP_ID":"220170297","CLASSIFICATION_TYPE":"U","MEAN_ELEMENT_THEORY":"SGP4","DECAY_DATE":null,"TLE_LINE1":"1 53195U 22084G   22346.13408657  .00007695  00000-0  61586-3 0  9996"}];
